[
    {
        "Altitude(m)": 624792.806234064,
        "Argument of Periapsis(deg)": 0.0,
        "Eccentricity": 0.0,
        "Inclination(deg)": 60.0,
        "Latitude(deg)": -59.14719113950033,
        "Longitude(deg)": -95.97363974207089,
        "Mean Anomaly(deg)": -98.18180000000002,
        "RAAN(deg)": 110.00000000000001,
        "Satellite Name": "Test1 500",
        "Satellite Number": 500,
        "Semi-Major Axis(m)": 6980739.136638005,
        "Time(s)": 0
    },
    {
        "Altitude(m)": 624842.198335221,
        "Argument of Periapsis(deg)": 0.00010418945913296404,
        "Eccentricity": 0.0,
        "Inclination(deg)": 60.0,
        "Latitude(deg)": -59.289275208469036,
        "Longitude(deg)": -94.84413248113218,
        "Mean Anomaly(deg)": -97.56169385453812,
        "RAAN(deg)": 109.99957995086025,
        "Satellite Name": "Test1 500",
        "Satellite Number": 500,
        "Semi-Major Axis(m)": 6980739.136638005,
        "Time(s)": 10
    }
]